[{"OBJECT_NAME":"IRIDIUM 129","OBJECT_ID":"2017-061D","EPOCH":"2026-03-09T22:44:30.673536","MEAN_MOTION":14.34217481,"ECCENTRICITY":0.0002338,"INCLINATION":86.3914,"RA_OF_ASC_NODE":66.7388,"ARG_OF_PERICENTER":83.3381,"MEAN_ANOMALY":276.8081,"EPHEMERIS_TYPE":0,"CLASSIFICATION_TYPE":"U","NORAD_CAT_ID":42958,"ELEMENT_SET_NO":999,"REV_AT_EPOCH":44057,"BSTAR":-5.174136e-6,"MEAN_MOTION_DOT":5.0e-8,"MEAN_MOTION_DDOT":0},{"OBJECT_NAME":"CZ-6A DEB","OBJECT_ID":"2022-151BF","EPOCH":"2026-03-09T02:14:11.342976","MEAN_MOTION":14.30187586,"ECCENTRICITY":0.0023149,"INCLINATION":98.8849,"RA_OF_ASC_NODE":116.4248,"ARG_OF_PERICENTER":72.4394,"MEAN_ANOMALY":287.9314,"EPHEMERIS_TYPE":0,"CLASSIFICATION_TYPE":"U","NORAD_CAT_ID":54312,"ELEMENT_SET_NO":999,"REV_AT_EPOCH":17220,"BSTAR":0.0012157763,"MEAN_MOTION_DOT":3.112e-5,"MEAN_MOTION_DDOT":0}]
